{"type": "FeatureCollection", "features": [ {"type": "Feature", "properties": {"norad_id": 44804, "name": "CARTOSAT-3", "group": "resource", "lat": -24.049639793618137, "lon": 59.05616223988022, "alt_km": 511.6971658825305, "timestamp": "2025-12-22T05:49:03.140076+00:00", "meta": {"OBJECT_NAME": "CARTOSAT-3", "OBJECT_ID": "2019-081A", "EPOCH": "2025-12-21T20:26:21.878304", "MEAN_MOTION": 15.19218003, "ECCENTRICITY": 0.0013816, "INCLINATION": 97.4573, "RA_OF_ASC_NODE": 55.3193, "ARG_OF_PERICENTER": 54.4922, "MEAN_ANOMALY": 305.7599, "EPHEMERIS_TYPE": 0, "CLASSIFICATION_TYPE": "U", "NORAD_CAT_ID": 44804, "ELEMENT_SET_NO": 999, "REV_AT_EPOCH": 33654, "BSTAR": 9.934e-05, "MEAN_MOTION_DOT": 2.027e-05, "MEAN_MOTION_DDOT": 0}, "tle": {"line1": "1 44804U 19081A   25355.85164211  .00002027  00000+0  99340-4 0  9996", "line2": "2 44804  97.4573  55.3193 0013816  54.4922 305.7599 15.19218003336547"}}, "geometry": {"type": "Point", "coordinates": [59.05616223988022, -24.049639793618137]}}, {"type": "Feature", "properties": {"norad_id": 44819, "name": "GAOFEN-12 01", "group": "resource", "lat": -23.7189882152354, "lon": 178.8157057191563, "alt_km": 631.4388308986763, "timestamp": "2025-12-22T05:49:03.140087+00:00", "meta": {"OBJECT_NAME": "GAOFEN-12 01", "OBJECT_ID": "2019-082A", "EPOCH": "2025-12-21T20:47:25.237248", "MEAN_MOTION": 14.80667198, "ECCENTRICITY": 0.0001931, "INCLINATION": 97.8122, "RA_OF_ASC_NODE": 1.9077, "ARG_OF_PERICENTER": 189.9561, "MEAN_ANOMALY": 170.1614, "EPHEMERIS_TYPE": 0, "CLASSIFICATION_TYPE": "U", "NORAD_CAT_ID": 44819, "ELEMENT_SET_NO": 999, "REV_AT_EPOCH": 32785, "BSTAR": 5.7489e-05, "MEAN_MOTION_DOT": 3.91e-06, "MEAN_MOTION_DDOT": 0}, "tle": {"line1": "1 44819U 19082A   25355.86626432  .00000391  00000+0  57489-4 0  9992", "line2": "2 44819  97.8122   1.9077 0001931 189.9561 170.1614 14.80667198327859"}}, "geometry": {"type": "Point", "coordinates": [178.8157057191563, -23.7189882152354]}}, {"type": "Feature", "properties": {"norad_id": 44873, "name": "CSG-1", "group": "resource", "lat": 5.552364304886602, "lon": 176.65165330770083, "alt_km": 624.604710762701, "timestamp": "2025-12-22T05:49:03.140097+00:00", "meta": {"OBJECT_NAME": "CSG-1", "OBJECT_ID": "2019-092A", "EPOCH": "2025-12-21T20:04:14.810592", "MEAN_MOTION": 14.82151597, "ECCENTRICITY": 0.0001473, "INCLINATION": 97.8803, "RA_OF_ASC_NODE": 177.0233, "ARG_OF_PERICENTER": 85.5065, "MEAN_ANOMALY": 274.6316, "EPHEMERIS_TYPE": 0, "CLASSIFICATION_TYPE": "U", "NORAD_CAT_ID": 44873, "ELEMENT_SET_NO": 999, "REV_AT_EPOCH": 32520, "BSTAR": 6.5073e-05, "MEAN_MOTION_DOT": 4.66e-06, "MEAN_MOTION_DDOT": 0}, "tle": {"line1": "1 44873U 19092A   25355.83628253  .00000466  00000+0  65073-4 0  9994", "line2": "2 44873  97.8803 177.0233 0001473  85.5065 274.6316 14.82151597325204"}}, "geometry": {"type": "Point", "coordinates": [176.65165330770083, 5.552364304886602]}}, {"type": "Feature", "properties": {"norad_id": 46277, "name": "NEMO-HD", "group": "resource", "lat": -5.644800663706815, "lon": 55.93784390747694, "alt_km": 447.9411935886801, "timestamp": "2025-12-22T05:49:03.140108+00:00", "meta": {"OBJECT_NAME": "NEMO-HD", "OBJECT_ID": "2020-061F", "EPOCH": "2025-12-21T20:29:18.485952", "MEAN_MOTION": 15.40499724, "ECCENTRICITY": 0.0001307, "INCLINATION": 97.2197, "RA_OF_ASC_NODE": 54.8361, "ARG_OF_PERICENTER": 51.8685, "MEAN_ANOMALY": 308.268, "EPHEMERIS_TYPE": 0, "CLASSIFICATION_TYPE": "U", "NORAD_CAT_ID": 46277, "ELEMENT_SET_NO": 999, "REV_AT_EPOCH": 29464, "BSTAR": 0.00022493, "MEAN_MOTION_DOT": 9.041e-05, "MEAN_MOTION_DDOT": 0}, "tle": {"line1": "1 46277U 20061F   25355.85368618  .00009041  00000+0  22493-3 0  9996", "line2": "2 46277  97.2197  54.8361 0001307  51.8685 308.2680 15.40499724294641"}}, "geometry": {"type": "Point", "coordinates": [55.93784390747694, -5.644800663706815]}}, {"type": "Feature", "properties": {"norad_id": 46984, "name": "SENTINEL-6A", "group": "resource", "lat": -4.6447679463538885, "lon": 140.50065138508188, "alt_km": 1339.7938772058678, "timestamp": "2025-12-22T05:49:03.140118+00:00", "meta": {"OBJECT_NAME": "SENTINEL-6A", "OBJECT_ID": "2020-086A", "EPOCH": "2025-12-21T18:36:03.861216", "MEAN_MOTION": 12.80930825, "ECCENTRICITY": 0.0007721, "INCLINATION": 66.0396, "RA_OF_ASC_NODE": 143.5414, "ARG_OF_PERICENTER": 269.3497, "MEAN_ANOMALY": 90.6633, "EPHEMERIS_TYPE": 0, "CLASSIFICATION_TYPE": "U", "NORAD_CAT_ID": 46984, "ELEMENT_SET_NO": 999, "REV_AT_EPOCH": 23760, "BSTAR": -4.0051e-05, "MEAN_MOTION_DOT": -7e-07, "MEAN_MOTION_DDOT": 0}, "tle": {"line1": "1 46984U 20086A   25355.77504469 -.00000070  00000+0 -40051-4 0  9991", "line2": "2 46984  66.0396 143.5414 0007721 269.3497  90.6633 12.80930825237605"}}, "geometry": {"type": "Point", "coordinates": [140.50065138508188, -4.6447679463538885]}}, {"type": "Feature", "properties": {"norad_id": 48079, "name": "GAOFEN-12 02", "group": "resource", "lat": -35.60732733019199, "lon": 164.43354534317953, "alt_km": 635.2316254082607, "timestamp": "2025-12-22T05:49:03.140128+00:00", "meta": {"OBJECT_NAME": "GAOFEN-12 02", "OBJECT_ID": "2021-026A", "EPOCH": "2025-12-21T20:44:11.123232", "MEAN_MOTION": 14.80685138, "ECCENTRICITY": 0.0003594, "INCLINATION": 97.9855, "RA_OF_ASC_NODE": 349.8265, "ARG_OF_PERICENTER": 82.8688, "MEAN_ANOMALY": 277.2933, "EPHEMERIS_TYPE": 0, "CLASSIFICATION_TYPE": "U", "NORAD_CAT_ID": 48079, "ELEMENT_SET_NO": 999, "REV_AT_EPOCH": 25552, "BSTAR": 5.8477e-05, "MEAN_MOTION_DOT": 3.97e-06, "MEAN_MOTION_DDOT": 0}, "tle": {"line1": "1 48079U 21026A   25355.86401763  .00000397  00000+0  58477-4 0  9997", "line2": "2 48079  97.9855 349.8265 0003594  82.8688 277.2933 14.80685138255527"}}, "geometry": {"type": "Point", "coordinates": [164.43354534317953, -35.60732733019199]}}, {"type": "Feature", "properties": {"norad_id": 48268, "name": "PLEIADES NEO 3", "group": "resource", "lat": -42.924288678778154, "lon": 75.96253498323998, "alt_km": 631.3561633105965, "timestamp": "2025-12-22T05:49:03.140138+00:00", "meta": {"OBJECT_NAME": "PLEIADES NEO 3", "OBJECT_ID": "2021-034A", "EPOCH": "2025-12-21T20:17:18.867264", "MEAN_MOTION": 14.81674561, "ECCENTRICITY": 0.0001397, "INCLINATION": 97.895, "RA_OF_ASC_NODE": 68.156, "ARG_OF_PERICENTER": 89.5427, "MEAN_ANOMALY": 270.5945, "EPHEMERIS_TYPE": 0, "CLASSIFICATION_TYPE": "U", "NORAD_CAT_ID": 48268, "ELEMENT_SET_NO": 999, "REV_AT_EPOCH": 25139, "BSTAR": 6.1005e-05, "MEAN_MOTION_DOT": 4.28e-06, "MEAN_MOTION_DDOT": 0}, "tle": {"line1": "1 48268U 21034A   25355.84535726  .00000428  00000+0  61005-4 0  9997", "line2": "2 48268  97.8950  68.1560 0001397  89.5427 270.5945 14.81674561251394"}}, "geometry": {"type": "Point", "coordinates": [75.96253498323998, -42.924288678778154]}}, {"type": "Feature", "properties": {"norad_id": 49070, "name": "PLEIADES NEO 4", "group": "resource", "lat": 42.67780580260599, "lon": -104.10539142655786, "alt_km": 619.9929381831407, "timestamp": "2025-12-22T05:49:03.140149+00:00", "meta": {"OBJECT_NAME": "PLEIADES NEO 4", "OBJECT_ID": "2021-073E", "EPOCH": "2025-12-20T17:32:43.601280", "MEAN_MOTION": 14.81672177, "ECCENTRICITY": 0.00013249, "INCLINATION": 97.8951, "RA_OF_ASC_NODE": 67.0538, "ARG_OF_PERICENTER": 89.6187, "MEAN_ANOMALY": 270.5178, "EPHEMERIS_TYPE": 0, "CLASSIFICATION_TYPE": "U", "NORAD_CAT_ID": 49070, "ELEMENT_SET_NO": 999, "REV_AT_EPOCH": 23494, "BSTAR": -3.6645539e-05, "MEAN_MOTION_DOT": -3.4e-06, "MEAN_MOTION_DDOT": 0}, "tle": {"line1": "1 49070U 21073E   25354.73106020 -.00000340  00000+0 -36646-4 0  9998", "line2": "2 49070  97.8951  67.0538 0001324  89.6187 270.5178 14.81672177234945"}}, "geometry": {"type": "Point", "coordinates": [-104.10539142655786, 42.67780580260599]}}, {"type": "Feature", "properties": {"norad_id": 49260, "name": "LANDSAT 9", "group": "resource", "lat": 33.80493173835183, "lon": 58.66893439264711, "alt_km": 699.9469948928163, "timestamp": "2025-12-22T05:49:03.140159+00:00", "meta": {"OBJECT_NAME": "LANDSAT 9", "OBJECT_ID": "2021-088A", "EPOCH": "2025-12-21T14:49:42.297024", "MEAN_MOTION": 14.57106446, "ECCENTRICITY": 0.0001114, "INCLINATION": 98.2083, "RA_OF_ASC_NODE": 63.5998, "ARG_OF_PERICENTER": 92.2065, "MEAN_ANOMALY": 267.9261, "EPHEMERIS_TYPE": 0, "CLASSIFICATION_TYPE": "U", "NORAD_CAT_ID": 49260, "ELEMENT_SET_NO": 999, "REV_AT_EPOCH": 22514, "BSTAR": 8.8517e-05, "MEAN_MOTION_DOT": 3.54e-06, "MEAN_MOTION_DDOT": 0}, "tle": {"line1": "1 49260U 21088A   25355.61785066  .00000354  00000+0  88517-4 0  9993", "line2": "2 49260  98.2083  63.5998 0001114  92.2065 267.9261 14.57106446225149"}}, "geometry": {"type": "Point", "coordinates": [58.66893439264711, 33.80493173835183]}}, {"type": "Feature", "properties": {"norad_id": 51444, "name": "CSG-2", "group": "resource", "lat": -5.8414525722617965, "lon": -3.3901282374198036, "alt_km": 626.5217715491535, "timestamp": "2025-12-22T05:49:03.140171+00:00", "meta": {"OBJECT_NAME": "CSG-2", "OBJECT_ID": "2022-008A", "EPOCH": "2025-12-21T19:15:38.107296", "MEAN_MOTION": 14.82153109, "ECCENTRICITY": 0.000147, "INCLINATION": 97.8798, "RA_OF_ASC_NODE": 176.9887, "ARG_OF_PERICENTER": 84.0519, "MEAN_ANOMALY": 276.0861, "EPHEMERIS_TYPE": 0, "CLASSIFICATION_TYPE": "U", "NORAD_CAT_ID": 51444, "ELEMENT_SET_NO": 999, "REV_AT_EPOCH": 21031, "BSTAR": 0.00010903, "MEAN_MOTION_DOT": 8.16e-06, "MEAN_MOTION_DDOT": 0}, "tle": {"line1": "1 51444U 22008A   25355.80252439  .00000816  00000+0  10903-3 0  9993", "line2": "2 51444  97.8798 176.9887 0001470  84.0519 276.0861 14.82153109210314"}}, "geometry": {"type": "Point", "coordinates": [-3.3901282374198036, -5.8414525722617965]}}]}